OBJECT_NAME,OBJECT_ID,EPOCH,MEAN_MOTION,ECCENTRICITY,INCLINATION,RA_OF_ASC_NODE,ARG_OF_PERICENTER,MEAN_ANOMALY,EPHEMERIS_TYPE,CLASSIFICATION_TYPE,NORAD_CAT_ID,ELEMENT_SET_NO,REV_AT_EPOCH,BSTAR,MEAN_MOTION_DOT,MEAN_MOTION_DDOT
H-2A R/B,2006-002B,2026-06-17T23:27:22.411872,15.18069313,.00496032,98.2568,324.8773,259.5476,100.0164,0,U,28932,999,10964,.29498348E-3,.6121E-4,0
RESURS-DK 1,2006-021A,2026-06-17T21:28:22.281312,15.13220954,.00068814,69.9330,337.7217,291.3042,68.7389,0,U,29228,999,10268,.10743511E-3,.1805E-4,0
CZ-4B R/B,2006-046C,2026-06-18T02:38:16.119456,15.17789199,.00309725,97.5449,213.7143,279.3719,80.4013,0,U,29507,999,7527,.14516267E-3,.2898E-4,0
CZ-2C R/B,2007-010B,2026-06-18T06:10:52.245696,14.20276364,.00589559,98.4100,277.5560,3.0175,357.1347,0,U,31114,999,99399,.4899081E-4,.65E-6,0
COSMO-SKYMED 1,2007-023A,2026-06-18T06:30:35.306208,14.97103986,.00013764,97.8848,1.1359,98.3961,261.7417,0,U,31598,999,2995,.20097584E-3,.2259E-4,0
COSMOS 2428,2007-029A,2026-06-17T22:08:19.092480,14.12928047,.00071234,70.9369,352.9338,133.5634,226.6080,0,U,31792,999,97825,-.3160549E-4,-.107E-5,0
SL-16 R/B,2007-029B,2026-06-17T21:32:44.681568,14.14855304,.00023416,70.9769,321.7341,261.7876,213.2383,0,U,31793,999,97954,.62559287E-4,.73E-6,0
KORONAS-FOTON,2009-003A,2026-06-18T01:11:20.429664,15.45735570,.0011793,82.4286,171.3600,144.6945,215.5087,0,U,33504,999,96123,.16358668E-3,.7965E-4,0
CZ-2C R/B,2011-030B,2026-06-17T20:24:04.388256,14.81472998,.00530123,97.8655,124.2242,25.8486,27.7673,0,U,37731,999,80492,.13595882E-3,.1036E-4,0
H-2A R/B,2012-025E,2026-06-17T21:25:37.652160,14.95724294,.00435701,98.4832,144.0966,347.0252,12.9842,0,U,38341,999,76319,.20958432E-3,.2308E-4,0
SHIJIAN-16 (SJ-16),2013-057A,2026-06-18T07:29:02.431680,14.92605748,.00167921,74.9726,354.5527,228.1213,131.8544,0,U,39358,999,68651,.19821487E-4,.175E-5,0
SL-4 R/B,2014-021B,2026-06-17T13:58:33.235968,15.41962162,.00912203,51.6039,208.8354,107.4106,253.6879,0,U,39679,999,67167,.19045221E-3,.9116E-4,0
ALOS-2,2014-029A,2026-06-18T06:56:03.552864,14.79471302,.00016337,97.9226,266.4363,91.2515,268.8883,0,U,39766,999,65174,.12148311E-3,.856E-5,0
YAOGAN-29,2015-069A,2026-06-18T07:47:39.939648,14.83087760,.00026018,98.0021,197.9598,53.2859,306.8593,0,U,41038,999,57079,.76289561E-4,.567E-5,0
ASTRO-H (HITOMI),2016-012A,2026-06-18T03:46:58.279872,15.10514071,.00097922,30.9997,67.9195,263.4058,96.5466,0,U,41337,999,56743,.11397034E-3,.2022E-4,0
HXMT (HUIYAN),2017-034A,2026-06-18T06:03:43.133184,15.18481812,.00307207,43.0125,177.1085,154.0537,206.1859,0,U,42758,999,49782,.10619477E-3,.2008E-4,0
SAOCOM 1A,2018-076A,2026-06-18T06:48:33.440832,14.82149813,.00015947,97.8877,356.0159,79.8851,280.2542,0,U,43641,999,41626,.77471138E-4,.564E-5,0
H-2A R/B,2018-084L,2026-06-18T07:03:12.448512,15.45189421,.00234126,98.8569,48.4252,36.9106,323.3744,0,U,43682,999,42129,.33793802E-3,.16095E-3,0
SAOCOM 1B,2020-059A,2026-06-18T07:33:25.193952,14.82144943,.0001607,97.8880,355.1414,82.3301,277.8095,0,U,46265,999,31365,-.39823985E-4,-.369E-5,0
CSS (TIANHE),2021-035A,2026-06-18T04:37:33.910176,15.60850984,.00073978,41.4698,315.8819,85.5010,274.6674,0,U,48274,999,29332,.23482026E-3,.19911E-3,0
COSMOS 2550,2021-056A,2026-06-17T22:29:15.459936,15.33847751,.00083421,67.1435,97.6381,268.6108,91.4090,0,U,48865,999,27883,.21058896E-3,.6747E-4,0
CZ-2C R/B,2022-058K,2026-06-18T00:14:11.492736,15.61906376,.00324809,50.1843,159.2367,271.3973,88.3280,0,U,52794,999,22577,.36021562E-3,.32429E-3,0
CZ-2C R/B,2022-132E,2026-06-17T23:31:31.075392,15.71573180,.00160322,97.2896,176.0396,81.6854,278.6226,0,U,54039,999,20607,.39709347E-3,.51342E-3,0
GSLV R/B,2022-138AN,2026-06-17T22:04:28.873632,14.97260846,.00229853,87.3808,132.7384,141.1738,219.1150,0,U,54149,999,19892,.19356429E-3,.2282E-4,0
XRISM,2023-137A,2026-06-17T21:59:54.110400,15.12472233,.00079543,31.0032,354.8773,331.0868,28.9330,0,U,57800,999,15297,.2213158E-3,.4046E-4,0
ACS3,2024-077B,2026-06-17T18:42:51.268320,13.94046414,.00766184,97.1683,87.4358,63.0470,297.8496,0,U,59588,999,10812,.27551023E-1,.37503E-3,0
CZ-8A R/B,2025-231K,2026-06-18T00:43:35.347008,14.30155119,.01164866,50.0054,35.7291,226.9752,132.1360,0,U,66004,999,3506,.50504348E-4,-.22E-6,0
SZ-21 MODULE,2025-246C,2026-06-17T12:46:53.918400,15.76430582,.0006303,41.4742,305.1743,350.6233,9.4493,0,U,66515,999,3379,.2382755E-3,.38762E-3,0
